653 Berenike,e,11.2907,132.8685,55.6198,3.015727,0.1881985,0.039799,118.6825,01/13.0/2016,2000,H 9.2,0.15
# From MPO355097
654 Zelinda,e,18.1265,278.4739,214.0236,2.296990,0.2831166,0.231425,355.2678,01/13.0/2016,2000,H 8.52,0.15
# From MPO355097
655 Briseis,e,6.4973,130.0675,278.5466,2.989829,0.1906490,0.087003,330.1747,01/13.0/2016,2000,H10.0,0.15
# From MPO347517
656 Beagle,e,0.5162,184.3050,330.7032,3.148071,0.1764563,0.134785,60.2242,01/13.0/2016,2000,H10.0,0.15
# From MPO355097
657 Gunlod,e,10.2295,297.6022,245.1643,2.611871,0.2334944,0.112186,160.3826,01/13.0/2016,2000,H10.93,0.15
# From MPO347517
658 Asteria,e,1.5061,351.0034,61.1971,2.852652,0.2045648,0.065597,198.6041,01/13.0/2016,2000,H10.54,0.15
# From MPO344298
659 Nestor,e,4.5231,350.8664,341.6550,5.181144,0.0835729,0.116521,242.2082,01/13.0/2016,2000,H 8.99,0.15
# From MPO355097
660 Crescentia,e,15.2054,156.9826,106.0462,2.533140,0.2444642,0.108311,136.5712,01/13.0/2016,2000,H 9.14,0.15
# From MPO355097
661 Cloelia,e,9.2320,335.8256,180.8607,3.017006,0.1880788,0.033912,211.2544,01/13.0/2016,2000,H 9.6,0.15
# From MPO355097
662 Newtonia,e,4.1202,133.7460,165.6047,2.552987,0.2416191,0.216712,76.3890,01/13.0/2016,2000,H10.3,0.15
# From MPO355097
663 Gerlinde,e,17.8203,232.8775,310.8779,3.068611,0.1833544,0.146099,99.3865,01/13.0/2016,2000,H 9.21,0.15
# From MPO347517
664 Judith,e,8.5781,170.9562,102.1448,3.195177,0.1725686,0.229877,353.6444,01/13.0/2016,2000,H 9.97,0.15
# From MPO355097
665 Sabine,e,14.7399,298.4448,318.9370,3.144672,0.1767425,0.171202,114.5625,01/13.0/2016,2000,H 8.6,0.15
# From MPO347517
666 Desdemona,e,7.5858,215.4138,174.1993,2.592426,0.2361264,0.238032,215.4040,01/13.0/2016,2000,H10.6,0.15
# From MPO350802
667 Denise,e,25.4043,153.2548,305.8701,3.182461,0.1736039,0.191294,171.0826,01/13.0/2016,2000,H 9.4,0.15
# From MPO344299
668 Dora,e,6.8426,214.4539,113.3161,2.793860,0.2110557,0.235152,340.4772,01/13.0/2016,2000,H12.0,0.15
# From MPO355097
669 Kypria,e,10.7914,170.7612,114.2786,3.015770,0.1881944,0.077153,240.7762,01/13.0/2016,2000,H10.24,0.15
# From MPO350802
670 Ottegebe,e,7.5353,174.6875,195.3202,2.802169,0.2101177,0.194022,291.6009,01/13.0/2016,2000,H 9.4,0.15
# From MPO344299
671 Carnegia,e,8.0287,0.5204,91.2157,3.091912,0.1812857,0.067527,173.0364,01/13.0/2016,2000,H10.2,0.15
# From MPO347517
672 Astarte,e,11.1247,343.9353,308.8528,2.555017,0.2413312,0.135506,150.9178,01/13.0/2016,2000,H11.5,0.15
# From MPO350802
673 Edda,e,2.8772,226.7282,236.3525,2.814098,0.2087830,0.011713,157.2289,01/13.0/2016,2000,H10.20,0.15
# From MPO344299
674 Rachele,e,13.5114,58.1465,42.0506,2.920881,0.1974392,0.195909,107.9494,01/13.0/2016,2000,H 7.42,0.15
# From MPO355097
675 Ludmilla,e,9.7821,263.2621,152.1907,2.771382,0.2136287,0.200919,56.4202,01/13.0/2016,2000,H 7.91,0.15
# From MPO355097
676 Melitta,e,12.8652,150.3732,182.8749,3.065790,0.1836075,0.122492,174.6279,01/13.0/2016,2000,H 9.4,0.15
# From MPO355097
677 Aaltje,e,8.4851,272.8579,277.3168,2.955359,0.1939942,0.051356,309.6496,01/13.0/2016,2000,H 9.5,0.15
# From MPO355097
678 Fredegundis,e,6.0832,281.4194,120.2158,2.573293,0.2387648,0.218182,26.0468,01/13.0/2016,2000,H 9.02,0.15
# From MPO355098
679 Pax,e,24.3865,112.2655,266.7425,2.586202,0.2369793,0.311429,345.9951,01/13.0/2016,2000,H 9.01,0.15
# From MPO347518
680 Genoveva,e,17.4979,38.0445,245.7138,3.145100,0.1767064,0.293394,348.2151,01/13.0/2016,2000,H 9.31,0.15
# From MPO355098
681 Gorgo,e,12.5804,177.9845,117.1168,3.105887,0.1800635,0.102753,109.7545,01/13.0/2016,2000,H10.8,0.15
# From MPO355098
682 Hagar,e,11.4990,190.8244,104.6572,2.654575,0.2278828,0.172783,221.3223,01/13.0/2016,2000,H12.2,0.15
# From MPO355098
683 Lanzia,e,18.5073,259.7239,283.5653,3.115058,0.1792689,0.055921,243.2390,01/13.0/2016,2000,H 8.7,0.15
# From MPO355098
684 Hildburg,e,5.5232,336.4423,292.0675,2.432265,0.2598291,0.035310,65.3449,01/13.0/2016,2000,H10.8,0.15
# From MPO344299
685 Hermia,e,3.6467,235.2126,80.8799,2.235786,0.2948212,0.196312,305.1468,01/13.0/2016,2000,H12.0,0.15
# From MPO350802
686 Gersuind,e,15.6623,243.2153,88.6796,2.591735,0.2362208,0.267533,189.0861,01/13.0/2016,2000,H 9.67,0.15
# From MPO337247
687 Tinette,e,14.8784,334.3477,52.9509,2.720972,0.2195927,0.272509,216.7502,01/13.0/2016,2000,H11.71,0.15
# From MPO355098
688 Melanie,e,10.2448,170.9126,139.5482,2.697953,0.2224090,0.139514,24.0823,01/13.0/2016,2000,H10.59,0.15
# From MPO355098
689 Zita,e,5.7444,168.1756,188.1336,2.315309,0.2797632,0.230093,61.3694,01/13.0/2016,2000,H12.15,0.15
# From MPO355098
690 Wratislavia,e,11.2647,253.1621,114.8590,3.145602,0.1766641,0.181779,18.1084,01/13.0/2016,2000,H 8.02,0.15
# From MPO355098
691 Lehigh,e,13.0062,88.0317,304.4833,3.013358,0.1884204,0.121267,151.5955,01/13.0/2016,2000,H 9.2,0.15
# From MPO347518
692 Hippodamia,e,26.0821,63.4887,54.2519,3.382761,0.1584153,0.169776,115.5982,01/13.0/2016,2000,H 9.18,0.15
# From MPO355098
693 Zerbinetta,e,14.1951,351.8746,288.7896,2.943783,0.1951396,0.031644,101.7709,01/13.0/2016,2000,H 9.5,0.15
# From MPO355098
694 Ekard,e,15.8351,230.2506,111.1913,2.672882,0.2255457,0.323350,156.1674,01/13.0/2016,2000,H 9.17,0.15
# From MPO355098
695 Bella,e,13.8455,275.6999,79.3645,2.540725,0.2433702,0.159243,135.3664,01/13.0/2016,2000,H 9.30,0.15
# From MPO347518
696 Leonora,e,13.0370,299.5192,104.1311,3.170159,0.1746154,0.250904,272.7008,01/13.0/2016,2000,H 9.4,0.15
# From MPO355098
697 Galilea,e,15.1429,15.5413,333.2778,2.880373,0.2016187,0.156549,22.2591,01/13.0/2016,2000,H 9.63,0.15
# From MPO355098
698 Ernestina,e,11.5317,40.6513,99.4072,2.867356,0.2029933,0.109146,304.4511,01/13.0/2016,2000,H10.9,0.15
# From MPO344299
699 Hela,e,15.2974,242.5500,91.4833,2.611901,0.2334903,0.409869,317.2390,01/13.0/2016,2000,H11.72,0.15
# From MPO355098
700 Auravictrix,e,6.7899,96.8449,101.8474,2.229667,0.2960357,0.104055,303.2335,01/13.0/2016,2000,H11.0,0.15
# From MPO355098
701 Oriola,e,7.1405,243.7464,326.5344,3.015151,0.1882524,0.032854,135.7958,01/13.0/2016,2000,H 9.25,0.15
# From MPO355098
702 Alauda,e,20.6055,289.9326,350.5878,3.193497,0.1727047,0.019418,206.8766,01/13.0/2016,2000,H 7.25,0.15
# From MPO344299
703 Noemi,e,2.4576,213.7723,174.5725,2.174760,0.3073173,0.138027,283.1135,01/13.0/2016,2000,H12.5,0.15
# From MPO347518
704 Interamnia,e,17.3095,280.2971,95.2615,3.057124,0.1843888,0.154295,239.1715,01/13.0/2016,2000,H 5.94,-0.02
# From MPO355098
705 Erminia,e,25.0455,2.8949,101.2147,2.922722,0.1972526,0.048468,309.4155,01/13.0/2016,2000,H 8.39,0.15
# From MPO355098
706 Hirundo,e,14.4659,325.5144,30.1787,2.730452,0.2184501,0.193993,135.8402,01/13.0/2016,2000,H11.0,0.15
# From MPO350802
707 Steina,e,4.2709,281.9657,90.5961,2.180232,0.3061610,0.108731,293.9577,01/13.0/2016,2000,H12.1,0.15
# From MPO355098
708 Raphaela,e,3.4917,355.2031,197.3303,2.670932,0.2257927,0.087045,323.6809,01/13.0/2016,2000,H10.61,0.15
# From MPO355098
709 Fringilla,e,16.2836,324.4902,18.0751,2.919140,0.1976159,0.111450,176.5250,01/13.0/2016,2000,H 9.04,0.15
# From MPO355098
710 Gertrud,e,1.7505,140.1906,99.9047,3.129829,0.1780013,0.134877,267.2055,01/13.0/2016,2000,H11.1,0.15
# From MPO350803
711 Marmulla,e,6.0918,357.0912,300.3499,2.237304,0.2945213,0.195271,6.1585,01/13.0/2016,2000,H11.7,0.15
# From MPO344299
712 Boliviana,e,12.7649,230.8280,181.6926,2.574427,0.2386071,0.187081,171.1610,01/13.0/2016,2000,H 8.32,0.03
# From MPO355098
713 Luscinia,e,10.3589,217.7077,137.1325,3.389754,0.1579254,0.164412,102.4887,01/13.0/2016,2000,H 8.97,0.15
# From MPO355098
714 Ulula,e,14.2676,233.8530,232.3063,2.535461,0.2441286,0.057328,79.3245,01/13.0/2016,2000,H 9.1,0.15
# From MPO355098
715 Transvaalia,e,13.8026,46.1608,299.4741,2.769198,0.2138814,0.082914,149.9989,01/13.0/2016,2000,H10.0,0.15
# From MPO350803
716 Berkeley,e,8.4809,145.9883,57.3505,2.813894,0.2088058,0.085035,161.4605,01/13.0/2016,2000,H10.84,0.15
# From MPO344299
717 Wisibada,e,1.6460,343.5944,24.5064,3.139148,0.1772092,0.262198,227.1881,01/13.0/2016,2000,H11.10,0.15
# From MPO355098
718 Erida,e,6.9275,38.5481,174.3909,3.057535,0.1843516,0.200344,328.2153,01/13.0/2016,2000,H 9.6,0.15
# From MPO350803
719 Albert,e,11.5646,183.9735,156.0191,2.633253,0.2306562,0.550874,132.6315,01/13.0/2016,2000,H15.5,0.15
# From MPO355098
720 Bohlinia,e,2.3562,35.7082,119.1300,2.886304,0.2009977,0.017066,309.7081,01/13.0/2016,2000,H 9.6,0.15
# From MPO344299
721 Tabora,e,8.3227,38.4106,352.9351,3.550809,0.1473035,0.115783,189.4201,01/13.0/2016,2000,H 9.26,0.15
# From MPO337248
722 Frieda,e,5.6383,45.6857,257.3859,2.172056,0.3078913,0.144437,275.0011,01/13.0/2016,2000,H12.4,0.15
# From MPO355098
723 Hammonia,e,4.9954,163.3521,246.2414,2.992921,0.1903536,0.053764,33.2412,01/13.0/2016,2000,H10.0,0.15
# From MPO355098
724 Hapag,e,11.7065,204.2753,205.4413,2.455246,0.2561896,0.249040,22.6065,01/13.0/2016,2000,H13.9,0.15
# From MPO355098
725 Amanda,e,3.7859,68.7959,322.9416,2.574675,0.2385725,0.219360,92.9087,01/13.0/2016,2000,H11.81,0.15
# From MPO332820
726 Joella,e,15.4006,242.1648,112.7578,2.568572,0.2394233,0.283920,155.8721,01/13.0/2016,2000,H10.57,0.15
# From MPO340696
727 Nipponia,e,15.0603,133.0711,275.0288,2.566382,0.2397298,0.105754,162.7443,01/13.0/2016,2000,H 9.6,0.15
# From MPO355098
728 Leonisis,e,4.2562,82.6628,55.3125,2.253766,0.2913002,0.087607,259.3030,01/13.0/2016,2000,H13.0,0.15
# From MPO355098
729 Watsonia,e,18.0415,124.3935,88.3240,2.759811,0.2149736,0.096824,180.0702,01/13.0/2016,2000,H 9.31,0.15
# From MPO355098
730 Athanasia,e,4.2348,95.0954,123.4019,2.243697,0.2932634,0.177876,303.3313,01/13.0/2016,2000,H13.7,0.15
# From MPO350803
731 Sorga,e,10.6889,46.1573,288.6211,2.987755,0.1908475,0.139939,255.7299,01/13.0/2016,2000,H 9.62,0.15
# From MPO355098
732 Tjilaki,e,10.9940,173.3611,63.6292,2.456913,0.2559290,0.043765,311.4179,01/13.0/2016,2000,H10.4,0.15
# From MPO337248
733 Mocia,e,20.2945,341.0087,190.1292,3.398426,0.1573212,0.060075,26.8295,01/13.0/2016,2000,H 9.05,0.15
# From MPO344299
